{
    "links": {
        "self": "http://www.neowsapp.com/rest/v1/neo/3601926?api_key=iIulBulltgU6a56xZRHN4H3l9WmuAYTsLGpBGhQ2"
    },
    "id": "3601926",
    "neo_reference_id": "3601926",
    "name": "(2012 FQ52)",
    "designation": "2012 FQ52",
    "nasa_jpl_url": "http://ssd.jpl.nasa.gov/sbdb.cgi?sstr=3601926",
    "absolute_magnitude_h": 25.0,
    "estimated_diameter": {
        "kilometers": {
            "estimated_diameter_min": 0.02658,
            "estimated_diameter_max": 0.0594346868
        },
        "meters": {
            "estimated_diameter_min": 26.58,
            "estimated_diameter_max": 59.4346868419
        },
        "miles": {
            "estimated_diameter_min": 0.0165160412,
            "estimated_diameter_max": 0.0369309908
        },
        "feet": {
            "estimated_diameter_min": 87.2047272,
            "estimated_diameter_max": 194.9956979785
        }
    },
    "is_potentially_hazardous_asteroid": false,
    "close_approach_data": [
        {
            "close_approach_date": "2012-03-19",
            "close_approach_date_full": "2012-Mar-19 14:25",
            "epoch_date_close_approach": 1332167100000,
            "relative_velocity": {
                "kilometers_per_second": "6.4349082017",
                "kilometers_per_hour": "23165.6695261722",
                "miles_per_hour": "14394.2461564152"
            },
            "miss_distance": {
                "astronomical": "0.0516197944",
                "lunar": "20.0801000216",
                "kilometers": "7722211.292077928",
                "miles": "4798359.5940062864"
            },
            "orbiting_body": "Earth"
        }
    ],
    "orbital_data": {
        "orbit_id": "11",
        "orbit_determination_date": "2017-04-06 08:50:17",
        "first_observation_date": "2012-03-27",
        "last_observation_date": "2012-04-19",
        "data_arc_in_days": 23,
        "observations_used": 74,
        "orbit_uncertainty": "8",
        "minimum_orbit_intersection": ".0435902",
        "jupiter_tisserand_invariant": "3.668",
        "epoch_osculation": "2456016.5",
        "eccentricity": ".4882001502249977",
        "semi_major_axis": "2.014279823193865",
        "inclination": "2.642280007050838",
        "ascending_node_longitude": "13.67389974965746",
        "orbital_period": "1044.186635962492",
        "perihelion_distance": "1.030908110915438",
        "perihelion_argument": "150.3827921455998",
        "aphelion_distance": "2.997651535472291",
        "perihelion_time": "2455993.895545211325",
        "mean_anomaly": "7.793246383030041",
        "mean_motion": ".3447659523703494",
        "equinox": "J2000",
        "orbit_class": {
            "orbit_class_type": "AMO",
            "orbit_class_description": "Near-Earth asteroid orbits similar to that of 1221 Amor",
            "orbit_class_range": "1.017 AU < q (perihelion) < 1.3 AU"
        }
    },
    "is_sentry_object": false
}